NORAD_CAT_ID,OBJECT_NAME,OBJECT_TYPE,EPOCH,MEAN_MOTION,ECCENTRICITY,INCLINATION,RA_OF_ASC_NODE,ARG_OF_PERICENTER,MEAN_ANOMALY,BSTAR,MEAN_MOTION_DOT,MEAN_MOTION_DDOT,TLE_LINE0,TLE_LINE1,TLE_LINE2,SEMIMAJOR_AXIS,PERIOD,APOGEE,PERIGEE,DECAYED
53970.0,STARLINK-4567,PAYLOAD,2023-11-23 08:39:55,15.08841626,0.000144,53.216,18.0787,86.0497,274.066,0.00012664,1.728e-05,0.0,0 STARLINK-4567,1 53970U 22125G   23327.36106079  .00001728  00000-0  12664-3 0  9995,2 53970  53.2160  18.0787 0001440  86.0497 274.0660 15.08841626 63057,6917.875,95.437,540.737,538.744,0.0
53970.0,STARLINK-4567,PAYLOAD,2023-11-24 03:44:33,15.08827116,0.0001832,53.2176,14.5085,110.1552,249.9637,-0.00011724,-2.153e-05,0.0,0 STARLINK-4567,1 53970U 22125G   23328.15594852 -.00002153  00000-0 -11724-3 0  9994,2 53970  53.2176  14.5085 0001832 110.1552 249.9637 15.08827116 63178,6917.92,95.438,541.052,538.517,0.0
53970.0,STARLINK-4567,PAYLOAD,2023-11-24 13:16:52,15.08833572,0.0001734,53.2174,12.7239,103.5468,256.5717,-6.5827e-05,-1.335e-05,0.0,0 STARLINK-4567,1 53970U 22125G   23328.55338961 -.00001335  00000-0 -65827-4 0  9990,2 53970  53.2174  12.7239 0001734 103.5468 256.5717 15.08833572 63176,6917.9,95.438,540.965,538.565,0.0
53970.0,STARLINK-4567,PAYLOAD,2023-11-25 03:35:20,15.08835157,0.0001598,53.2189,10.0488,99.5503,260.567,0.00019056,2.746e-05,0.0,0 STARLINK-4567,1 53970U 22125G   23329.14954784  .00002746  00000-0  19056-3 0  9990,2 53970  53.2189  10.0488 0001598  99.5503 260.5670 15.08835157 63322,6917.895,95.438,540.866,538.655,0.0
53970.0,STARLINK-4567,PAYLOAD,2023-11-25 08:21:30,15.08847059,0.0001667,53.2175,9.1566,74.9475,285.1702,0.00037392,5.669e-05,0.0,0 STARLINK-4567,1 53970U 22125G   23329.34826725  .00005669  00000-0  37392-3 0  9995,2 53970  53.2175   9.1566 0001667  74.9475 285.1702 15.08847059 63294,6917.859,95.437,540.877,538.571,0.0
53970.0,STARLINK-4567,PAYLOAD,2023-11-26 09:47:40,15.088281,0.0001802,53.2178,4.3991,66.6961,293.422,-0.00034462,-5.767e-05,0.0,0 STARLINK-4567,1 53970U 22125G   23330.40810617 -.00005767  00000-0 -34462-3 0  9993,2 53970  53.2178   4.3991 0001802  66.6961 293.4220 15.08828100 63513,6917.917,95.438,541.028,538.535,0.0
53970.0,STARLINK-4567,PAYLOAD,2023-11-27 11:13:51,15.0881921,0.0001564,53.2171,359.6421,97.1854,262.9316,-0.00030933,-5.205e-05,0.0,0 STARLINK-4567,1 53970U 22125G   23331.46795950 -.00005205  00000-0 -30933-3 0  9998,2 53970  53.2171 359.6421 0001564  97.1854 262.9316 15.08819210 63671,6917.944,95.439,540.891,538.727,0.0
53970.0,STARLINK-4567,PAYLOAD,2023-11-28 01:32:19,15.08831397,0.0001316,53.2182,356.965,124.7977,235.3139,-3.1861e-05,-7.95e-06,0.0,0 STARLINK-4567,1 53970U 22125G   23332.06411657 -.00000795  00000-0 -31861-4 0  9995,2 53970  53.2182 356.9650 0001316 124.7977 235.3139 15.08831397 63762,6917.907,95.438,540.682,538.861,0.0
53970.0,STARLINK-4567,PAYLOAD,2023-11-28 09:29:15,15.08863875,0.0001526,53.216,355.4801,97.0531,263.0635,0.0015908,0.00025137,0.0,0 STARLINK-4567,1 53970U 22125G   23332.39532105  .00025137  00000-0  15908-2 0  9990,2 53970  53.2160 355.4801 0001526  97.0531 263.0635 15.08863875 63812,6917.807,95.436,540.728,538.617,0.0
53970.0,STARLINK-4567,PAYLOAD,2023-11-29 10:55:25,15.08866755,0.0001663,53.2163,350.7217,99.1774,260.9407,0.00090879,0.00014216,0.0,0 STARLINK-4567,1 53970U 22125G   23333.45515458  .00014216  00000-0  90879-3 0  9997,2 53970  53.2163 350.7217 0001663  99.1774 260.9407 15.08866755 63978,6917.799,95.436,540.814,538.513,0.0
53970.0,STARLINK-4567,PAYLOAD,2023-11-30 01:13:53,15.08848556,0.0001696,53.2161,348.0462,89.753,270.3656,0.00083433,0.00013018,0.0,0 STARLINK-4567,1 53970U 22125G   23334.05131560  .00013018  00000-0  83433-3 0  9999,2 53970  53.2161 348.0462 0001696  89.7530 270.3656 15.08848556 64060,6917.854,95.437,540.893,538.546,0.0
53970.0,STARLINK-4567,PAYLOAD,2023-12-01 04:15:27,15.08842148,0.0002448,53.2177,342.9859,124.0327,236.0898,0.00082295,0.00012834,0.0,0 STARLINK-4567,1 53970U 22125G   23335.17739804  .00012834  00000-0  82295-3 0  9998,2 53970  53.2177 342.9859 0002448 124.0327 236.0898 15.08842148 64230,6917.874,95.437,541.432,538.045,0.0
53970.0,STARLINK-4567,PAYLOAD,2023-12-01 07:26:13,15.08841142,0.0002092,53.2181,342.3945,117.4849,242.6356,0.00030789,4.615e-05,0.0,0 STARLINK-4567,1 53970U 22125G   23335.30987846  .00004615  00000-0  30789-3 0  9993,2 53970  53.2181 342.3945 0002092 117.4849 242.6356 15.08841142 64252,6917.877,95.437,541.189,538.295,0.0
53970.0,STARLINK-4567,PAYLOAD,2023-12-02 07:16:59,15.08887036,0.0001786,53.2183,337.9337,96.1011,264.0184,0.0017242,0.00027295,0.0,0 STARLINK-4567,1 53970U 22125G   23336.30346800  .00027295  00000-0  17242-2 0  9990,2 53970  53.2183 337.9337 0001786  96.1011 264.0184 15.08887036 64408,6917.737,95.435,540.837,538.366,0.0
53970.0,STARLINK-4567,PAYLOAD,2023-12-03 03:57:00,15.0884191,0.0001841,53.2187,334.0704,111.7149,248.4039,-0.00020101,-3.486e-05,0.0,0 STARLINK-4567,1 53970U 22125G   23337.16458954 -.00003486  00000-0 -20101-3 0  9996,2 53970  53.2187 334.0704 0001841 111.7149 248.4039 15.08841910 64536,6917.875,95.437,541.013,538.466,0.0
53970.0,STARLINK-4567,PAYLOAD,2023-12-03 05:32:23,15.08839018,0.0001771,53.218,333.7718,112.4525,247.6655,-0.0002202,-3.791e-05,0.0,0 STARLINK-4567,1 53970U 22125G   23337.23083014 -.00003791  00000-0 -22020-3 0  9996,2 53970  53.2180 333.7718 0001771 112.4525 247.6655 15.08839018 64483,6917.883,95.438,540.974,538.523,0.0
53970.0,STARLINK-4567,PAYLOAD,2023-12-04 03:47:48,15.08823525,0.0001958,53.2175,329.608,118.6267,241.4922,3.4462e-05,2.6e-06,0.0,0 STARLINK-4567,1 53970U 22125G   23338.15819863  .00000260  00000-0  34462-4 0  9997,2 53970  53.2175 329.6080 0001958 118.6267 241.4922 15.08823525 64688,6917.931,95.439,541.15,538.441,0.0
53970.0,STARLINK-4567,PAYLOAD,2023-12-04 08:33:58,15.08826793,0.0001819,53.2177,328.7162,101.742,258.3776,0.00038119,5.782e-05,0.0,0 STARLINK-4567,1 53970U 22125G   23338.35692239  .00005782  00000-0  38119-3 0  9991,2 53970  53.2177 328.7162 0001819 101.7420 258.3776 15.08826793 64652,6917.921,95.438,541.044,538.527,0.0
53970.0,STARLINK-4567,PAYLOAD,2023-12-05 03:38:35,15.0884345,0.0001735,53.2175,325.1484,99.3201,260.7988,0.00055096,8.492e-05,0.0,0 STARLINK-4567,1 53970U 22125G   23339.15180394  .00008492  00000-0  55096-3 0  9998,2 53970  53.2175 325.1484 0001735  99.3201 260.7988 15.08843450 64835,6917.87,95.437,540.935,538.535,0.0
53970.0,STARLINK-4567,PAYLOAD,2023-12-05 08:24:45,15.08853341,0.0001747,53.2173,324.2526,96.0388,264.0804,0.00078476,0.00012228,0.0,0 STARLINK-4567,1 53970U 22125G   23339.35052184  .00012228  00000-0  78476-3 0  9994,2 53970  53.2173 324.2526 0001747  96.0388 264.0804 15.08853341 64804,6917.84,95.437,540.913,538.496,0.0
53970.0,STARLINK-4567,PAYLOAD,2023-12-06 03:29:22,15.08846776,0.0002228,53.2177,320.6776,96.9145,263.2101,0.00038278,5.81e-05,0.0,0 STARLINK-4567,1 53970U 22125G   23340.14540345  .00005810  00000-0  38278-3 0  9999,2 53970  53.2177 320.6776 0002228  96.9145 263.2101 15.08846776 64984,6917.86,95.437,541.266,538.183,0.0
53970.0,STARLINK-4567,PAYLOAD,2023-12-06 08:15:32,15.08842876,0.0001807,53.2179,319.7864,98.3687,261.751,0.00030353,4.546e-05,0.0,0 STARLINK-4567,1 53970U 22125G   23340.34412349  .00004546  00000-0  30353-3 0  9994,2 53970  53.2179 319.7864 0001807  98.3687 261.7510 15.08842876 64953,6917.872,95.437,540.987,538.487,0.0
53970.0,STARLINK-4567,PAYLOAD,2023-12-07 03:20:10,15.08840154,0.0001951,53.2184,316.2157,92.7257,267.3959,0.00021101,3.072e-05,0.0,0 STARLINK-4567,1 53970U 22125G   23341.13900606  .00003072  00000-0  21101-3 0  9994,2 53970  53.2184 316.2157 0001951  92.7257 267.3959 15.08840154 65134,6917.88,95.438,541.095,538.395,0.0
53970.0,STARLINK-4567,PAYLOAD,2023-12-07 08:06:19,15.08839201,0.0001998,53.2185,315.3302,84.6386,275.4834,5.0825e-05,5.21e-06,0.0,0 STARLINK-4567,1 53970U 22125G   23341.33772771  .00000521  00000-0  50825-4 0  9998,2 53970  53.2185 315.3302 0001998  84.6386 275.4834 15.08839201 65101,6917.883,95.438,541.13,538.366,0.0
53970.0,STARLINK-4567,PAYLOAD,2023-12-08 07:57:06,15.08843935,0.0001914,53.2182,310.871,113.8711,246.2482,0.00012479,1.699e-05,0.0,0 STARLINK-4567,1 53970U 22125G   23342.33132358  .00001699  00000-0  12479-3 0  9999,2 53970  53.2182 310.8710 0001914 113.8711 246.2482 15.08843935 65313,6917.868,95.437,541.057,538.409,0.0
53970.0,STARLINK-4567,PAYLOAD,2023-12-09 03:01:44,15.08840287,0.0001586,53.2174,307.3014,92.1193,267.998,8.0513e-05,9.94e-06,0.0,0 STARLINK-4567,1 53970U 22125G   23343.12620653  .00000994  00000-0  80513-4 0  9999,2 53970  53.2174 307.3014 0001586  92.1193 267.9980 15.08840287 65433,6917.88,95.438,540.842,538.647,0.0
53970.0,STARLINK-4567,PAYLOAD,2023-12-09 04:37:07,15.0884055,0.0001601,53.218,307.0046,93.7683,266.3492,9.8546e-05,1.281e-05,0.0,0 STARLINK-4567,1 53970U 22125G   23343.19244663  .00001281  00000-0  98546-4 0  9994,2 53970  53.2180 307.0046 0001601  93.7683 266.3492 15.08840550 65389,6917.879,95.438,540.851,538.636,0.0
53970.0,STARLINK-4567,PAYLOAD,2023-12-09 22:06:22,15.08837457,0.0001729,53.2183,303.7329,104.189,255.9295,6.6477e-05,7.7e-06,0.0,0 STARLINK-4567,1 53970U 22125G   23343.92108847  .00000770  00000-0  66477-4 0  9998,2 53970  53.2183 303.7329 0001729 104.1890 255.9295 15.08837457 65496,6917.888,95.438,540.949,538.557,0.0
53970.0,STARLINK-4567,PAYLOAD,2023-12-10 07:38:40,15.08839326,0.0001734,53.2183,301.949,104.5052,255.6133,7.1983e-05,8.58e-06,0.0,0 STARLINK-4567,1 53970U 22125G   23344.31852804  .00000858  00000-0  71983-4 0  9996,2 53970  53.2183 301.9490 0001734 104.5052 255.6133 15.08839326 65614,6917.882,95.438,540.947,538.548,0.0
53970.0,STARLINK-4567,PAYLOAD,2023-12-11 02:43:18,15.08835682,0.0001688,53.218,298.3801,97.9942,262.1242,5.3365e-05,5.61e-06,0.0,0 STARLINK-4567,1 53970U 22125G   23345.11341202  .00000561  00000-0  53365-4 0  9995,2 53970  53.2180 298.3801 0001688  97.9942 262.1242 15.08835682 65678,6917.894,95.438,540.926,538.591,0.0
